[{"OBJECT_NAME":"STARLINK-5070","OBJECT_ID":"2023-021AC","EPOCH":"2026-03-09T17:33:18.636480","MEAN_MOTION":14.98340861,"ECCENTRICITY":0.00033787,"INCLINATION":70.0003,"RA_OF_ASC_NODE":184.5139,"ARG_OF_PERICENTER":265.7825,"MEAN_ANOMALY":94.2948,"EPHEMERIS_TYPE":0,"CLASSIFICATION_TYPE":"U","NORAD_CAT_ID":55654,"ELEMENT_SET_NO":999,"REV_AT_EPOCH":16879,"BSTAR":-0.000141652,"MEAN_MOTION_DOT":-1.783e-5,"MEAN_MOTION_DDOT":0},{"OBJECT_NAME":"AIST-1 (RS41)","OBJECT_ID":"2013-078C","EPOCH":"2026-03-09T23:05:53.785248","MEAN_MOTION":14.95763496,"ECCENTRICITY":0.00150774,"INCLINATION":82.4188,"RA_OF_ASC_NODE":6.9784,"ARG_OF_PERICENTER":249.0877,"MEAN_ANOMALY":110.8731,"EPHEMERIS_TYPE":0,"CLASSIFICATION_TYPE":"U","NORAD_CAT_ID":39492,"ELEMENT_SET_NO":999,"REV_AT_EPOCH":66041,"BSTAR":0.00019220788,"MEAN_MOTION_DOT":2.171e-5,"MEAN_MOTION_DDOT":0}]
